FALCONSAT-10            
1 58291U 23174AM  26068.70247784  .00006748  00000+0  25969-3 0  9991
2 58291  97.3865 145.7938 0008932 169.5942 190.5483 15.26670596129582
STARLINK-32354          
1 61932U 24207W   26068.00482753  .00032811  00000+0  11958-2 0  9997
2 61932  43.0041 289.3865 0001982 289.2672  70.7966 15.27599767 75063
